#aV2020  8 20  0  0  0.00000000     288 DD+AD WGS84 FIT  NGA
## 2119 345600.00000000   300.00000000 59081 0.0000000000000
+   31     1  2  3  4  5  6  7  8  9 10 11 12 13 15 16 17 18
+         19 20 21 22 23 24 25 26 27 28 29 30 31 32  0  0  0
+          0  0  0  0  0  0  0  0  0  0  0  0  0  0  0  0  0
+          0  0  0  0  0  0  0  0  0  0  0  0  0  0  0  0  0
+          0  0  0  0  0  0  0  0  0  0  0  0  0  0  0  0  0
++         2  2  2  2  2  2  2  2  2  2  2  2  2  2  2  2  2
++         2  2  2  2  2  2  2  2  2  2  2  2  2  2  0  0  0
++         0  0  0  0  0  0  0  0  0  0  0  0  0  0  0  0  0
++         0  0  0  0  0  0  0  0  0  0  0  0  0  0  0  0  0
++         0  0  0  0  0  0  0  0  0  0  0  0  0  0  0  0  0
%c cc cc ccc ccc cccc cccc cccc cccc ccccc ccccc ccccc ccccc
%c cc cc ccc ccc cccc cccc cccc cccc ccccc ccccc ccccc ccccc
%f  0.0000000  0.000000000  0.00000000000  0.000000000000000
%f  0.0000000  0.000000000  0.00000000000  0.000000000000000
%i    0    0    0    0      0      0      0      0         0
%i    0    0    0    0      0      0      0      0         0
/*      NGA, ST. LOUIS,MO.                                  
/*   EPHEMERIS COMPUTED FROM 2 DAYS OF DATA                 
/*   EPOCHA v5 SMOOTHER                                     
/*   G1762 IERS2010 SATAF SATAPC                            
*  2020  8 20 10 50  0.00000000
P  1  13877.123689 -17057.491589  14417.548489     34.657828                    
V  1  -2377.402807  18760.191093  24410.054200      0.016113                    
P  2 -14237.893907  -5123.985737 -21193.641835   -504.823897                    
V  2   4605.592085 -28066.786580   3549.580790     -0.054106                    
P  3  21787.999559 -12721.545463  -8209.479575   -275.398168                    
V  3  10619.376078   -681.956390  29613.635311     -0.109920                    
P  4  11687.278299  -9821.115975 -21726.246651   -126.615229                    
V  4  19591.741137  19455.013450   1708.990983     -0.043471                    
P  5 -24314.025994    148.764060 -11067.046713    -19.238570                    
V  5  12207.413248  -6834.616883 -27086.333705     -0.008425                    
P  6  -7536.882680 -18804.441291 -17104.190221   -317.535127                    
V  6   6148.476148 -20950.481385  20300.436873     -0.040618                    
P  7   5164.400183 -25761.315139   1235.932094   -354.307055                    
V  7   3688.451098   -374.250618 -31837.265869     -0.084200                    
P  8  19301.669487    332.171286  18367.166922    -45.099328                    
V  8  16471.771531  16358.739014 -17362.103032     -0.012855                    
P  9     33.716131 -18318.844320 -19279.794826   -273.287112                    
V  9  19137.534983  15196.652899 -14460.310751     -0.059824                    
P 10   6402.345039  13807.595884  21865.997908   -432.640297                    
V 10 -26229.411836   8338.640729   2183.594980     -0.101998                    
P 11  14088.491535  -8502.725668  20409.100194   -187.552572                    
V 11   7402.205302  26152.000408   5308.738621      0.106047                    
P 12 -23059.035899  10726.082217  -7619.297721     78.159865                    
V 12  -9643.356973    -15.061584  30230.149176     -0.049653                    
P 13 -20517.484772  -9757.072799  13723.019750     37.517664                    
V 13  -9784.883554 -14731.795251 -24778.505701      0.034848                    
P 15 -19354.548184   2308.688927  17873.378751   -209.354825                    
V 15 -17621.570127 -15412.759863 -16408.150884      0.025813                    
P 16  25445.430700    416.853785  -8581.451705   -198.128462                    
V 16  -9850.692559   3884.035363 -29342.487081     -0.049592                    
P 17 -13684.405528 -21576.999875   7760.286216    313.770509                    
V 17   7746.322854   5367.755359  30202.861269      0.055653                    
P 18  -5399.553520  25940.219156   1498.849169    273.745151                    
V 18  -3118.196517   1202.115950 -31785.585448      0.079839                    
P 19 -17908.889977 -19654.671016   -631.366404   -115.991069                    
V 19   1274.306497  -1711.071410  32170.044971      0.050572                    
P 20  -5873.970533  17887.853886  18564.514053    526.985637                    
V 20 -22462.824540   8405.878282 -15378.659388     -0.001093                    
P 21  12477.686390  13244.302545  20216.189947     37.779600                    
V 21  -4540.332644  23540.711629 -12808.681826      0.043385                    
P 22  24548.812960  -9924.747214    258.468781   -762.485544                    
V 22   1386.021152   3608.951691  31191.176991      0.034105                    
P 23  -4667.666637  16502.695115  20248.328200     45.007147                    
V 23 -24745.749312   7299.866639 -11642.241887      0.109653                    
P 24 -14438.982019  14886.766491  16176.025257    -17.409148                    
V 24    721.081042 -21295.925860  20364.504470     -0.005545                    
P 25 -14082.738570  15967.806900 -15951.176292     37.808751                    
V 25 -19595.435084   4062.469740  21943.175943      0.049263                    
P 26  17352.166897   8076.774833 -18540.071823    264.537754                    
V 26 -21596.139569   9257.581644 -15980.083689      0.065905                    
P 27  22066.073023  10740.620213  10428.326279   -375.650535                    
V 27   8598.353613  10332.128636 -28111.500899     -0.092427                    
P 28  -6688.491227 -13905.827812  22186.314886    687.619650                    
V 28  26101.114859  -5888.640977   4438.882982     -0.039786                    
P 29  -4431.363349  15624.502233 -21050.626353   -176.790841                    
V 29 -18711.253424 -18874.181250 -10132.945169     -0.082998                    
P 30  -1953.528109 -24100.610070  10787.204978   -285.852424                    
V 30   6557.054673 -12503.394575 -27090.656948     -0.073719                    
P 31   8925.141225  17014.894287 -18181.749957    -63.374219                    
V 31  -7468.435914  22020.896642  17433.702345     -0.024325                    
P 32  15637.784208  20538.367900   6670.105471    335.221821                    
V 32  -7948.426707  -3631.591434  30057.759711      0.053375                    
EOF
